{"type": "FeatureCollection", "name": "seliger-knyazha-seremo", "features": [{"type": "Feature", "id": "seliger-shore-clip", "properties": {"name": "Селигер юг, фрагмент outer way 49215822", "osm": "way/49215822", "role": "outer", "relation": 399081, "kind": "seliger-shore"}, "geometry": {"type": "LineString", "coordinates": [[33.1650453, 57.3058831], [33.1665394, 57.3052482], [33.1660015, 57.3049576], [33.1654508, 57.3045632], [33.1665329, 57.3037476], [33.1680967, 57.3036383], [33.1699369, 57.3030684], [33.1728728, 57.3020641], [33.1756017, 57.299852], [33.1773347, 57.2982987], [33.1775764, 57.2982325], [33.1780277, 57.2979706], [33.1783133, 57.2976608], [33.1777289, 57.2972006], [33.1772525, 57.2964346], [33.1753977, 57.295358], [33.1724481, 57.2945575], [33.1700448, 57.2941558], [33.1666643, 57.2944577], [33.1653154, 57.2945875]]}}, {"type": "Feature", "id": "knyazha-area", "properties": {"name": "Княжа", "osm": "way/81753515", "kind": "knyazha-area", "natural": "water", "water": "river", "closed": true}, "geometry": {"type": "Polygon", "coordinates": [[[33.1773347, 57.2982987], [33.1779726, 57.29873], [33.1788386, 57.299277], [33.1798484, 57.2994644], [33.1815926, 57.2995911], [33.1826432, 57.2997509], [33.1832246, 57.3004508], [33.1835408, 57.300853], [33.1844384, 57.3009577], [33.1855502, 57.3006987], [33.186101, 57.3001752], [33.1864478, 57.2996848], [33.1865396, 57.2987425], [33.1864274, 57.2983457], [33.1868354, 57.2982906], [33.1873046, 57.2984725], [33.187478, 57.2990401], [33.1876106, 57.2996738], [33.1881206, 57.3000485], [33.1889978, 57.3002579], [33.189773, 57.3002689], [33.1907828, 57.2999769], [33.1917008, 57.2998501], [33.192833, 57.3001477], [33.1935164, 57.3003957], [33.1941284, 57.3006326], [33.194873, 57.3007373], [33.1963284, 57.3006072], [33.1963299, 57.3003393], [33.1963727, 57.3000374], [33.1958524, 57.3001884], [33.1951578, 57.3002477], [33.1943483, 57.3002448], [33.1938, 57.300005], [33.1930218, 57.2997172], [33.1922698, 57.2995254], [33.1913716, 57.2994661], [33.1909224, 57.2994718], [33.1903584, 57.2996411], [33.1898414, 57.299847], [33.1892721, 57.3000135], [33.1885514, 57.299895], [33.1883739, 57.2993646], [33.188353, 57.2990034], [33.1881232, 57.2986254], [33.1876532, 57.2981457], [33.1868385, 57.2979087], [33.1861805, 57.2978748], [33.1857627, 57.2982416], [33.1857522, 57.2987072], [33.1857052, 57.299421], [33.1854911, 57.2999853], [33.1850368, 57.3003774], [33.1845929, 57.300558], [33.1841019, 57.300527], [33.1837886, 57.3004734], [33.1837259, 57.299895], [33.1829635, 57.2994436], [33.1823263, 57.2992461], [33.181496, 57.2991586], [33.180488, 57.2991304], [33.1797517, 57.2991022], [33.1793704, 57.2989893], [33.1787751, 57.2986874], [33.1782946, 57.2982614], [33.1780277, 57.2979706], [33.1775764, 57.2982325], [33.1773347, 57.2982987]]]}}, {"type": "Feature", "id": "knyazha-centerline", "properties": {"name": "Княжа (линейная река)", "osm": "way/32487176", "kind": "knyazha-line", "waterway": "river", "closed": false}, "geometry": {"type": "LineString", "coordinates": [[33.1963299, 57.3003393], [33.1958276, 57.3004123], [33.1942645, 57.3003388], [33.1926668, 57.2997774], [33.1909936, 57.2996486], [33.1893161, 57.3001721], [33.1880758, 57.2998338], [33.1875025, 57.298229], [33.1862598, 57.2980959], [33.1862071, 57.2986176], [33.1860344, 57.2999562], [33.1849549, 57.3006902], [33.1837177, 57.3007008], [33.1833999, 57.3000742], [33.1825489, 57.29949], [33.1792883, 57.2991886], [33.1775764, 57.2982325]]}}, {"type": "Feature", "id": "sereymo", "properties": {"name": "Серемо", "osm": "relation/9617478", "kind": "sereymo", "outer_ways": [691933859, 20542644]}, "geometry": {"type": "Polygon", "coordinates": [[[33.222055, 57.2928949], [33.2227149, 57.2925598], [33.2232325, 57.292297], [33.2241248, 57.2925404], [33.2239626, 57.2932299], [33.2203902, 57.2934118], [33.2203934, 57.2939194], [33.2227354, 57.2950015], [33.2237587, 57.2947749], [33.2244235, 57.2949072], [33.2241786, 57.2952664], [33.2231814, 57.2955689], [33.2229015, 57.2959659], [33.2231114, 57.2963345], [33.2242485, 57.2964479], [33.2248467, 57.2968127], [33.2251582, 57.2971757], [33.2252282, 57.2978184], [33.2246859, 57.2988486], [33.2252119, 57.2992028], [33.2274358, 57.2992743], [33.2295636, 57.3005655], [33.2306338, 57.300701], [33.2327331, 57.3002663], [33.2331893, 57.3003535], [33.233153, 57.3007104], [33.2331063, 57.3009621], [33.231561, 57.3011357], [33.2309373, 57.3015447], [33.2309137, 57.302043], [33.2330748, 57.3036418], [33.2267568, 57.3044886], [33.2251298, 57.3055839], [33.2233236, 57.3053232], [33.2208962, 57.3060423], [33.2179397, 57.3064484], [33.2222936, 57.3074558], [33.2239163, 57.3068782], [33.2261682, 57.3082378], [33.2257367, 57.3098528], [33.2229889, 57.310491], [33.2215455, 57.3115186], [33.2221219, 57.3132039], [33.2215216, 57.3143982], [33.2198904, 57.315058], [33.2162855, 57.3170046], [33.2147339, 57.318834], [33.2125932, 57.3193708], [33.2095907, 57.3187658], [33.205448, 57.3170091], [33.1998608, 57.3160954], [33.19867, 57.3150834], [33.1973144, 57.3137043], [33.1980894, 57.3115352], [33.2028959, 57.309032], [33.2058141, 57.3081975], [33.2042692, 57.307363], [33.2052991, 57.3059722], [33.2021272, 57.3032464], [33.2008563, 57.3027867], [33.1980629, 57.3017724], [33.1963284, 57.3006072], [33.1963299, 57.3003393], [33.1963727, 57.3000374], [33.1974057, 57.2988925], [33.197881, 57.2980271], [33.1986555, 57.2973947], [33.2007677, 57.2971617], [33.2059858, 57.2967915], [33.2085127, 57.2962915], [33.2101057, 57.2955857], [33.2108801, 57.2948982], [33.2118514, 57.2946403], [33.2155988, 57.2941017], [33.2194436, 57.2926964], [33.221327, 57.2929294], [33.222055, 57.2928949]]]}}, {"type": "Feature", "id": "node-952397004", "properties": {"kind": "shared-node", "osm_node": 952397004, "label": "Селигер∩Княжа"}, "geometry": {"type": "Point", "coordinates": [33.1773347, 57.2982987]}}, {"type": "Feature", "id": "node-220277673", "properties": {"kind": "shared-node", "osm_node": 220277673, "label": "Селигер∩Княжа (+ конец линейной Княжи)"}, "geometry": {"type": "Point", "coordinates": [33.1775764, 57.2982325]}}, {"type": "Feature", "id": "node-952396939", "properties": {"kind": "shared-node", "osm_node": 952396939, "label": "Селигер∩Княжа"}, "geometry": {"type": "Point", "coordinates": [33.1780277, 57.2979706]}}, {"type": "Feature", "id": "node-749439906", "properties": {"kind": "shared-node", "osm_node": 749439906, "label": "Княжа∩Серемо"}, "geometry": {"type": "Point", "coordinates": [33.1963284, 57.3006072]}}, {"type": "Feature", "id": "node-952397092", "properties": {"kind": "shared-node", "osm_node": 952397092, "label": "Княжа∩Серемо (+ начало линейной Княжи)"}, "geometry": {"type": "Point", "coordinates": [33.1963299, 57.3003393]}}, {"type": "Feature", "id": "node-220278932", "properties": {"kind": "shared-node", "osm_node": 220278932, "label": "Княжа∩Серемо"}, "geometry": {"type": "Point", "coordinates": [33.1963727, 57.3000374]}}]}