{"type": "FeatureCollection", "name": "seliger-neighbor-water-connectivity", "features": [{"type": "Feature", "id": "sadok", "properties": {"name": "Садок", "osm": "way/119343953", "kind": "disconnected", "physical": "НЕТ", "shared_nodes": 0, "shared_edges": 0, "dist_m": 20.95}, "geometry": {"type": "Polygon", "coordinates": [[[33.0742342, 57.2435471], [33.0740217, 57.2434704], [33.0732721, 57.2432357], [33.0729248, 57.2432331], [33.0724854, 57.2433559], [33.0721935, 57.2436085], [33.0720525, 57.2439431], [33.0722844, 57.2441479], [33.0728951, 57.2442048], [33.0732231, 57.2444239], [33.0734921, 57.2446712], [33.0733909, 57.2449126], [33.0730628, 57.2450835], [33.0724877, 57.245175], [33.0723341, 57.2452947], [33.0725029, 57.2455206], [33.0733042, 57.2455823], [33.0737617, 57.2457539], [33.074289, 57.246152], [33.0747811, 57.2464491], [33.0759662, 57.2467564], [33.0767115, 57.2468127], [33.0774865, 57.2467071], [33.0778791, 57.2464619], [33.0780059, 57.246264], [33.0779663, 57.2458408], [33.0776796, 57.2454865], [33.0768341, 57.2451829], [33.0759363, 57.2450123], [33.0754267, 57.2447123], [33.0750652, 57.2445546], [33.0746508, 57.2442591], [33.0743639, 57.2440865], [33.0743032, 57.2437953], [33.0742342, 57.2435471]]]}}, {"type": "Feature", "id": "pond-430378915", "properties": {"name": "(без имени)", "osm": "way/430378915", "kind": "disconnected", "physical": "НЕТ", "shared_nodes": 0, "shared_edges": 0, "dist_m": 23.2}, "geometry": {"type": "Polygon", "coordinates": [[[33.0473552, 57.4644089], [33.0472801, 57.4643209], [33.0472372, 57.4642488], [33.0472775, 57.4641926], [33.0474411, 57.4640469], [33.0477495, 57.4638983], [33.04783, 57.4638521], [33.0479561, 57.4637367], [33.0480929, 57.463666], [33.048227, 57.4636559], [33.0484094, 57.4637093], [33.048471, 57.4637771], [33.0485006, 57.4638824], [33.0484979, 57.4640382], [33.0484228, 57.464132], [33.0482994, 57.4641752], [33.0481867, 57.4642214], [33.0480553, 57.4642589], [33.0479882, 57.4643411], [33.0479024, 57.4643686], [33.0478595, 57.4643945], [33.0477388, 57.4644537], [33.0476208, 57.4644609], [33.047492, 57.4644551], [33.0473552, 57.4644089]]]}}, {"type": "Feature", "id": "divnoe", "properties": {"name": "Дивное", "osm": "relation/1729194", "kind": "disconnected", "physical": "НЕТ", "shared_nodes": 0, "shared_edges": 0, "dist_m": 1559.2}, "geometry": {"type": "Polygon", "coordinates": [[[33.0790025, 57.2052376], [33.0787716, 57.205101], [33.0773177, 57.2048546], [33.0761272, 57.204918], [33.0759662, 57.20504], [33.0759126, 57.2052579], [33.0757141, 57.2053247], [33.0754942, 57.2053887], [33.075065, 57.2053683], [33.0748182, 57.2050952], [33.0747431, 57.2048366], [33.0748022, 57.204578], [33.0749524, 57.2044008], [33.0750489, 57.2042264], [33.0750283, 57.2041475], [33.0745768, 57.2040172], [33.0745286, 57.2038632], [33.0745333, 57.203727], [33.0744235, 57.2036534], [33.0742443, 57.2033518], [33.074373, 57.2031513], [33.0746144, 57.202916], [33.0747861, 57.2027358], [33.0746949, 57.2024511], [33.0745286, 57.2023377], [33.0741692, 57.2021837], [33.0738503, 57.2018935], [33.073626, 57.201543], [33.0734771, 57.2013265], [33.0730855, 57.2008819], [33.0727583, 57.2006785], [33.0723453, 57.2005739], [33.0710471, 57.200231], [33.0705482, 57.2000334], [33.0700177, 57.1997369], [33.0696791, 57.1994319], [33.0695397, 57.1991936], [33.0695987, 57.198871], [33.0696309, 57.1986327], [33.0695343, 57.1984758], [33.0691561, 57.1984387], [33.0689067, 57.1985165], [33.0686706, 57.1986705], [33.0681074, 57.1992313], [33.0680269, 57.1995568], [33.0683327, 57.1997864], [33.0687672, 57.1999578], [33.0693036, 57.2000595], [33.0693895, 57.2001002], [33.0694592, 57.2001612], [33.0695397, 57.2003065], [33.0694699, 57.2004547], [33.0693519, 57.2005245], [33.0690193, 57.2005012], [33.068374, 57.2002424], [33.0680301, 57.2001056], [33.0674744, 57.200045], [33.0670989, 57.2000508], [33.0669808, 57.2001177], [33.0669218, 57.2002077], [33.0670506, 57.2003269], [33.0673778, 57.2005071], [33.0678391, 57.2006698], [33.0681771, 57.2010156], [33.068397, 57.2012771], [33.0685848, 57.2014282], [33.0687404, 57.2016839], [33.0688745, 57.2019222], [33.0690569, 57.2020065], [33.0691728, 57.2020195], [33.0694807, 57.2019658], [33.0698162, 57.2018225], [33.0702156, 57.201835], [33.0707627, 57.2024394], [33.0713743, 57.2028462], [33.0718678, 57.2033141], [33.0719536, 57.203532], [33.0719268, 57.2037005], [33.0718195, 57.2038981], [33.0719268, 57.2044211], [33.0720127, 57.2047436], [33.072195, 57.2049819], [33.0723882, 57.2051126], [33.072812, 57.2052957], [33.0731714, 57.2054032], [33.0734074, 57.205531], [33.0736005, 57.2057577], [33.0735952, 57.2059901], [33.0735791, 57.2062371], [33.0734128, 57.2064521], [33.0732197, 57.2066438], [33.0729246, 57.2067629], [33.0726457, 57.2068414], [33.0725115, 57.2070157], [33.0725437, 57.2072046], [33.0727476, 57.2073586], [33.0730587, 57.2073789], [33.0733967, 57.2072772], [33.0739766, 57.2072397], [33.0743504, 57.2073316], [33.0750543, 57.2075765], [33.0753279, 57.2077421], [33.0755639, 57.2079222], [33.0761915, 57.20796], [33.0767226, 57.2079048], [33.0772215, 57.207806], [33.0776528, 57.2076274], [33.077817, 57.2075387], [33.0778545, 57.2072365], [33.0780369, 57.2070738], [33.0782357, 57.2069703], [33.0786645, 57.2070331], [33.079112, 57.2071413], [33.0793244, 57.207222], [33.079378, 57.2074079], [33.0792332, 57.2075852], [33.0788201, 57.2076927], [33.0785626, 57.207806], [33.0784607, 57.2078728], [33.0784661, 57.2080413], [33.0786377, 57.2082098], [33.0790039, 57.2082961], [33.0794048, 57.2082389], [33.0795979, 57.2079948], [33.0799574, 57.2076665], [33.0800164, 57.2074254], [33.0799037, 57.2072249], [33.0797428, 57.2070709], [33.0795926, 57.207039], [33.0793565, 57.2070361], [33.07926, 57.2069663], [33.0791849, 57.2066671], [33.0791795, 57.2064433], [33.0790883, 57.2061993], [33.0789076, 57.2060694], [33.0788545, 57.2057961], [33.0791541, 57.2054329], [33.0790025, 57.2052376]], [[33.0707088, 57.2018306], [33.0709497, 57.2018494], [33.0710896, 57.2018444], [33.0711968, 57.2018162], [33.0713101, 57.2017493], [33.071353, 57.2017133], [33.0713775, 57.2016663], [33.0713673, 57.201611], [33.0712948, 57.2015828], [33.0711978, 57.2015684], [33.0710437, 57.201569], [33.0709283, 57.2015828], [33.0708691, 57.2016049], [33.0706761, 57.2017034], [33.0706547, 57.2017365], [33.0706567, 57.2017692], [33.070668, 57.2018046], [33.0707088, 57.2018306]], [[33.0769728, 57.2062414], [33.0770259, 57.2061474], [33.0770606, 57.2060301], [33.0771056, 57.2059726], [33.0771484, 57.2059428], [33.0772036, 57.2059317], [33.0772587, 57.2059262], [33.0775242, 57.2059383], [33.0777569, 57.2059815], [33.078002, 57.2060644], [33.0781572, 57.2061617], [33.0782082, 57.2062403], [33.0781878, 57.2064006], [33.0779836, 57.206457], [33.0778468, 57.2064504], [33.0777222, 57.2064615], [33.077614, 57.2064891], [33.0775385, 57.2065079], [33.0773731, 57.2065123], [33.0772689, 57.2065024], [33.0770402, 57.2064626], [33.0769647, 57.2064327], [33.0769443, 57.2063962], [33.0769728, 57.2062414]]]}}, {"type": "Feature", "id": "berezovskoe", "properties": {"name": "Берёзовское озеро", "osm": "relation/77684", "kind": "disconnected", "physical": "НЕТ", "shared_nodes": 0, "shared_edges": 0, "dist_m": 4471.3}, "geometry": {"type": "Polygon", "coordinates": [[[33.2709602, 57.2952667], [33.2731918, 57.2964725], [33.277655, 57.2983274], [33.2799934, 57.2988557], [33.2812843, 57.2984221], [33.2812599, 57.2977709], [33.2835872, 57.2973476], [33.2848648, 57.2958232], [33.2848782, 57.2945481], [33.2825753, 57.2936998], [33.2831481, 57.2932262], [33.2843548, 57.2931907], [33.286047, 57.2938035], [33.2878353, 57.2937605], [33.2889779, 57.2937375], [33.2899025, 57.293483], [33.2909493, 57.2928419], [33.2911845, 57.2927969], [33.2952796, 57.2920139], [33.2952933, 57.2911922], [33.2935138, 57.2911828], [33.2934478, 57.2900723], [33.2967174, 57.289144], [33.2980692, 57.288541], [33.298037, 57.2883729], [33.2980263, 57.2882569], [33.2982945, 57.2881468], [33.2986593, 57.2880424], [33.2991099, 57.2880714], [33.2992816, 57.2879728], [33.2994318, 57.2879091], [33.2997322, 57.2878743], [33.2998717, 57.2878511], [33.3000219, 57.2877583], [33.2998717, 57.2877351], [33.2993942, 57.2877583], [33.2988042, 57.2878395], [33.2982838, 57.2878975], [33.2979941, 57.2878511], [33.297742, 57.2876395], [33.2975864, 57.2875264], [33.297565, 57.2874684], [33.2978547, 57.2874104], [33.2978493, 57.2872684], [33.2977313, 57.2872075], [33.2975489, 57.2871901], [33.2974952, 57.2870625], [33.2977635, 57.2869553], [33.2980961, 57.2868915], [33.2985145, 57.2868538], [33.2987237, 57.2868944], [33.2989168, 57.2868857], [33.2990831, 57.2868596], [33.2991743, 57.2867494], [33.2992655, 57.2866915], [33.2997858, 57.2867233], [33.3001453, 57.2867291], [33.3004296, 57.2866886], [33.3005744, 57.2867059], [33.3007407, 57.2867581], [33.3009446, 57.2867465], [33.3009982, 57.2867262], [33.3009871, 57.2866801], [33.3009821, 57.2866596], [33.3008587, 57.2866683], [33.3007353, 57.286677], [33.3005959, 57.2866364], [33.3004671, 57.2866161], [33.3002204, 57.2866364], [33.3000058, 57.2866074], [33.2997805, 57.2864972], [33.2995874, 57.2863117], [33.2995874, 57.2861087], [33.2997966, 57.2859725], [33.3001131, 57.2859551], [33.3004135, 57.2859261], [33.3005691, 57.2859696], [33.3006924, 57.2860623], [33.3007193, 57.2860145], [33.3008158, 57.2859841], [33.3010358, 57.2858797], [33.3011645, 57.2857956], [33.3012235, 57.2858536], [33.3015454, 57.2858797], [33.3019584, 57.2858594], [33.3021033, 57.2857869], [33.301937, 57.2858043], [33.3017546, 57.2857985], [33.30154, 57.2857318], [33.3014005, 57.2856478], [33.3012181, 57.2856796], [33.3010626, 57.2857405], [33.300848, 57.2857753], [33.30073, 57.2858246], [33.3005208, 57.285842], [33.3003116, 57.2856478], [33.3002257, 57.2856246], [33.3003008, 57.2855144], [33.3003277, 57.2854187], [33.3002043, 57.2854187], [33.2999897, 57.2854332], [33.2993621, 57.2854013], [33.2985538, 57.2853056], [33.2964738, 57.2858111], [33.2937911, 57.2868254], [33.2896713, 57.2880315], [33.2855487, 57.2879612], [33.2846582, 57.2877699], [33.2839715, 57.2878279], [33.2830274, 57.2880076], [33.2825875, 57.2882685], [33.2820082, 57.2886164], [33.2810533, 57.2889121], [33.2802808, 57.2888889], [33.2794011, 57.2886918], [33.2791543, 57.2884135], [33.279283, 57.2880076], [33.2792187, 57.2874916], [33.2796156, 57.2868248], [33.2792938, 57.2862508], [33.2788861, 57.2861754], [33.2783389, 57.2861754], [33.2774833, 57.2862688], [33.2758713, 57.2863088], [33.2733178, 57.286935], [33.272835, 57.2869872], [33.2725239, 57.286848], [33.2724917, 57.286703], [33.2728565, 57.2865523], [33.2734895, 57.2862682], [33.2739079, 57.2860884], [33.2743156, 57.2858565], [33.2740796, 57.2857115], [33.2737899, 57.2857405], [33.2735217, 57.2856709], [33.2732212, 57.2854216], [33.2736075, 57.2850505], [33.2731676, 57.284633], [33.2725239, 57.2843257], [33.2719874, 57.2842329], [33.271333, 57.2842387], [33.2709648, 57.2845365], [33.2701957, 57.284546], [33.2698846, 57.2842213], [33.2696915, 57.284001], [33.2691443, 57.2838908], [33.2685757, 57.2840358], [33.2676744, 57.2842271], [33.2632649, 57.2855898], [33.2615697, 57.2864769], [33.2605398, 57.2872481], [33.2607543, 57.2875264], [33.2590914, 57.2883091], [33.2579627, 57.2888718], [33.2563877, 57.2886512], [33.2557976, 57.2886686], [33.2538879, 57.2890397], [33.252815, 57.2892716], [33.2521713, 57.2894513], [33.2515383, 57.2899615], [33.2514928, 57.29005], [33.251431, 57.2901702], [33.2516469, 57.2901721], [33.2520854, 57.290176], [33.2526326, 57.2900079], [33.2532978, 57.2899267], [33.2542688, 57.290034], [33.2551432, 57.2900021], [33.2557923, 57.290147], [33.2569349, 57.2909645], [33.2580856, 57.2914638], [33.2608322, 57.2919276], [33.2642654, 57.2924841], [33.2667799, 57.2928131], [33.2672024, 57.293869], [33.2671487, 57.2941762], [33.267256, 57.2946342], [33.2675886, 57.2950516], [33.2683611, 57.2952835], [33.269037, 57.2953878], [33.2698309, 57.295382], [33.2704103, 57.2952313], [33.2709602, 57.2952667]]]}}, {"type": "Feature", "id": "sadok-nearest", "properties": {"kind": "nearest-approach", "pair": "Садок–Селигер", "dist_m": 20.95, "sadok_node": 1341251176, "seliger_node": 1341251169}, "geometry": {"type": "LineString", "coordinates": [[33.0729248, 57.2432331], [33.0729061, 57.243045]]}}, {"type": "Feature", "id": "pond-nearest", "properties": {"kind": "nearest-approach", "pair": "way/430378915–Селигер", "dist_m": 23.2, "pond_node": 4296636254, "seliger_node": 4296636256}, "geometry": {"type": "LineString", "coordinates": [[33.0485006, 57.4638824], [33.048885, 57.4639107]]}}, {"type": "Feature", "id": "polonovka-area", "properties": {"name": "Полоновка", "osm": "relation/1203668", "kind": "connected", "physical": "ДА", "shared_nodes": 6, "shared_edges": 4}, "geometry": {"type": "Polygon", "coordinates": [[[33.0093681, 57.3644769], [33.0099624, 57.364506], [33.0099624, 57.3646673], [33.0097741, 57.3648763], [33.0101695, 57.3651197], [33.0106933, 57.3650913], [33.011005, 57.3648985], [33.0120625, 57.3649572], [33.012549, 57.3650492], [33.0129103, 57.3648819], [33.0131934, 57.3648914], [33.0136405, 57.3651018], [33.0142372, 57.3648763], [33.014684, 57.3646215], [33.015101, 57.3642313], [33.0148131, 57.3638371], [33.0150567, 57.3636221], [33.0147688, 57.3633354], [33.015798, 57.362926], [33.0170391, 57.3627321], [33.0176704, 57.3622065], [33.0184567, 57.3619915], [33.0186892, 57.3622245], [33.0185342, 57.362553], [33.0190325, 57.3624156], [33.0192319, 57.3621886], [33.0194423, 57.3618959], [33.018859, 57.3616021], [33.0176704, 57.3608447], [33.016873, 57.360325], [33.0163082, 57.3600383], [33.0164632, 57.3598293], [33.0174046, 57.3596381], [33.0175977, 57.359181], [33.0181355, 57.3586764], [33.0198155, 57.3579615], [33.0229846, 57.3581346], [33.0243615, 57.3574928], [33.0255391, 57.3574371], [33.0256462, 57.3576293], [33.0253051, 57.3581749], [33.0248049, 57.3583341], [33.0248081, 57.3591295], [33.0257144, 57.3594596], [33.0248731, 57.3600621], [33.0250777, 57.3603122], [33.0258508, 57.360676], [33.0254188, 57.3613353], [33.0261123, 57.3616309], [33.0266238, 57.3614377], [33.0262604, 57.3611719], [33.0276129, 57.3607897], [33.0288748, 57.3606987], [33.0298311, 57.3601364], [33.0324672, 57.3586069], [33.0342293, 57.357993], [33.0358777, 57.3572882], [33.0360368, 57.356481], [33.0366686, 57.3559827], [33.0376853, 57.3557989], [33.0378672, 57.3554011], [33.038788, 57.3551168], [33.039004, 57.3543779], [33.0406393, 57.3535986], [33.0413678, 57.3536217], [33.0416249, 57.3535747], [33.0424361, 57.3527547], [33.043066, 57.3517547], [33.0434906, 57.3513334], [33.0441386, 57.3515039], [33.044923, 57.3512879], [33.0444114, 57.3507536], [33.0456847, 57.35064], [33.0463559, 57.3501271], [33.0469466, 57.3508901], [33.0471277, 57.3517157], [33.0486632, 57.3504922], [33.0504919, 57.3493966], [33.0534364, 57.3486135], [33.054063, 57.347122], [33.0528528, 57.3469074], [33.0527693, 57.3466032], [33.053947, 57.3462991], [33.054694, 57.3458811], [33.0553204, 57.345503], [33.0560949, 57.3452854], [33.0570711, 57.3456747], [33.0585035, 57.345148], [33.0598828, 57.3451079], [33.0609841, 57.3452681], [33.0612328, 57.3450892], [33.0612728, 57.3448102], [33.0614815, 57.3447314], [33.0622929, 57.344616], [33.0621647, 57.3440428], [33.0624548, 57.3433942], [33.0631594, 57.3429581], [33.0649416, 57.3421418], [33.0661228, 57.3419852], [33.0666617, 57.3414037], [33.0668067, 57.3405538], [33.0691692, 57.3393236], [33.0713459, 57.3376613], [33.0704165, 57.3376373], [33.0698147, 57.3374179], [33.0689722, 57.337409], [33.0686984, 57.3372795], [33.0689485, 57.3368273], [33.0694563, 57.3364993], [33.0694564, 57.3357592], [33.0691308, 57.333653], [33.0691388, 57.3330547], [33.0695868, 57.3327793], [33.0703846, 57.3325086], [33.071238, 57.3324716], [33.07015, 57.3322584], [33.0698967, 57.3320273], [33.0696062, 57.3321758], [33.0682528, 57.3328679], [33.0681268, 57.3335096], [33.0685294, 57.3342915], [33.0685935, 57.3351424], [33.0687945, 57.3359916], [33.0686753, 57.3364077], [33.0680593, 57.3367715], [33.0674173, 57.3377467], [33.0669956, 57.3379502], [33.0633578, 57.3397055], [33.0626895, 57.340063], [33.0626573, 57.3404049], [33.063091, 57.3407131], [33.0630594, 57.3412844], [33.0623773, 57.3415572], [33.0627411, 57.3416709], [33.0641394, 57.3416254], [33.0644888, 57.3417712], [33.0627599, 57.3426052], [33.0612943, 57.3435731], [33.061407, 57.3438992], [33.0613943, 57.3440683], [33.060922, 57.3442729], [33.0601759, 57.344094], [33.0590983, 57.3441499], [33.0570674, 57.3443959], [33.0561763, 57.344709], [33.0550226, 57.3452317], [33.0540464, 57.3452614], [33.0524231, 57.3458013], [33.0517016, 57.3458558], [33.0516591, 57.3462851], [33.0512347, 57.3463939], [33.0506087, 57.346268], [33.0495282, 57.3467706], [33.0483734, 57.3469144], [33.0473141, 57.3473811], [33.0463501, 57.348288], [33.0456819, 57.3484578], [33.0448093, 57.3487414], [33.0444114, 57.3487642], [33.0439982, 57.3482717], [33.0440217, 57.3474999], [33.0440349, 57.3468943], [33.0433921, 57.3463008], [33.0421641, 57.3460518], [33.0416234, 57.3469303], [33.0406969, 57.3472256], [33.0403427, 57.3476351], [33.039179, 57.3486451], [33.0384201, 57.3495459], [33.0372059, 57.3500372], [33.0370035, 57.3506923], [33.03598, 57.3514903], [33.0358422, 57.3518659], [33.0354798, 57.3520019], [33.0338172, 57.3521775], [33.0334113, 57.3526302], [33.0340871, 57.3529697], [33.0328548, 57.3533944], [33.03245, 57.353913], [33.03304, 57.354271], [33.0312621, 57.3555261], [33.0290282, 57.3562381], [33.0266037, 57.3555863], [33.0260469, 57.3555682], [33.0254054, 57.3554641], [33.0247826, 57.3555405], [33.0242431, 57.3557945], [33.0243497, 57.3561312], [33.0247774, 57.3569225], [33.0228041, 57.357777], [33.0202144, 57.357458], [33.0184197, 57.3580389], [33.0174799, 57.3587001], [33.0167324, 57.3592259], [33.0157766, 57.3592439], [33.015113, 57.3593219], [33.0144144, 57.3591483], [33.0137309, 57.3593311], [33.0130116, 57.3593663], [33.0123299, 57.3597703], [33.0122373, 57.3600565], [33.0125739, 57.3601659], [33.0131626, 57.3600025], [33.013354, 57.3601928], [33.0130022, 57.3605932], [33.013253, 57.3608707], [33.0137589, 57.360761], [33.0142864, 57.3605076], [33.0148174, 57.360678], [33.0136721, 57.3610934], [33.0125282, 57.3611323], [33.0124653, 57.3613763], [33.0121009, 57.3614715], [33.0107716, 57.3609864], [33.0095018, 57.360997], [33.0086777, 57.3614898], [33.0078525, 57.3615583], [33.0081129, 57.3620035], [33.0093681, 57.3644769]]]}}, {"type": "Feature", "id": "polonovka-river", "properties": {"name": "Полоновка", "osm": "way/32487402", "kind": "connected", "physical": "ДА", "shared_nodes": 2, "shared_edges": 0}, "geometry": {"type": "LineString", "coordinates": [[33.0081129, 57.3620035], [33.0104522, 57.3618421], [33.0121976, 57.361683], [33.0141324, 57.3611511], [33.0150055, 57.3607154], [33.0153149, 57.360287], [33.0166558, 57.3594481], [33.0191009, 57.3579965], [33.0195042, 57.3578254], [33.0203041, 57.3577531], [33.0225431, 57.3579463], [33.0229101, 57.357911], [33.0232586, 57.3577745], [33.024444, 57.3573379], [33.0247026, 57.35722], [33.025029, 57.3570111], [33.0256348, 57.3564477], [33.0262978, 57.3562293], [33.0270866, 57.3562927], [33.0280065, 57.3564286], [33.0290515, 57.3563942], [33.030664, 57.3560632], [33.0419791, 57.3519453], [33.0425484, 57.3516164], [33.0441543, 57.3505281], [33.0458643, 57.3493966], [33.0475162, 57.3482388], [33.0480967, 57.3479516], [33.0508613, 57.3469582], [33.0543779, 57.3456988], [33.0570406, 57.3448927], [33.057746, 57.3447754], [33.0609052, 57.3444066], [33.0613886, 57.344302], [33.0617081, 57.3440262], [33.0622239, 57.343364], [33.0626352, 57.3430512], [33.0631574, 57.3427616], [33.0641888, 57.3422543], [33.064572, 57.341933], [33.0649265, 57.341497], [33.0657717, 57.3402043], [33.0682626, 57.3374701], [33.0685409, 57.3369654], [33.0688455, 57.3365528], [33.0690055, 57.3361756], [33.0690211, 57.3357948], [33.0688179, 57.334484], [33.0688716, 57.3334438], [33.0689268, 57.3330233], [33.069307, 57.3327081], [33.07015, 57.3322584]]}}, {"type": "Feature", "id": "rel-17001378", "properties": {"name": "(без имени, water=river)", "osm": "relation/17001378", "kind": "connected", "physical": "ДА", "shared_nodes": 3, "shared_edges": 2, "shared_way": 1238091260}, "geometry": {"type": "Polygon", "coordinates": [[[33.0092007, 57.5193123], [33.0093517, 57.5190929], [33.0088573, 57.519031], [33.0093965, 57.519061], [33.0096124, 57.5190308], [33.0097076, 57.5189804], [33.0098525, 57.5189688], [33.0100161, 57.5190344], [33.0102923, 57.519092], [33.0104484, 57.5191353], [33.0105177, 57.5191935], [33.0107725, 57.519401], [33.010743, 57.5194226], [33.0107255, 57.5194298], [33.0105914, 57.5193253], [33.0104828, 57.5192404], [33.0103594, 57.5191676], [33.0101556, 57.5191518], [33.009941, 57.5190855], [33.0097854, 57.519061], [33.0094796, 57.5191388], [33.0094019, 57.5192137], [33.0092007, 57.5193123]]]}}, {"type": "Feature", "id": "node-365264664", "properties": {"kind": "shared-node", "osm_node": 365264664, "label": "N∩Полоновка"}, "geometry": {"type": "Point", "coordinates": [33.0081129, 57.3620035]}}, {"type": "Feature", "id": "node-365264682", "properties": {"kind": "shared-node", "osm_node": 365264682, "label": "S∩Полоновка"}, "geometry": {"type": "Point", "coordinates": [33.07015, 57.3322584]}}, {"type": "Feature", "id": "node-950124294", "properties": {"kind": "shared-node", "osm_node": 950124294, "label": "север∩rel 17001378"}, "geometry": {"type": "Point", "coordinates": [33.0092007, 57.5193123]}}, {"type": "Feature", "id": "node-9235426556", "properties": {"kind": "shared-node", "osm_node": 9235426556, "label": "север∩rel 17001378∩stream"}, "geometry": {"type": "Point", "coordinates": [33.0093517, 57.5190929]}}, {"type": "Feature", "id": "node-11500497926", "properties": {"kind": "shared-node", "osm_node": 11500497926, "label": "север∩rel 17001378"}, "geometry": {"type": "Point", "coordinates": [33.0088573, 57.519031]}}, {"type": "Feature", "id": "node-220277673", "properties": {"kind": "shared-node", "osm_node": 220277673, "label": "юг∩Княжа"}, "geometry": {"type": "Point", "coordinates": [33.1775764, 57.2982325]}}, {"type": "Feature", "id": "node-12188675959", "properties": {"kind": "shared-node", "osm_node": 12188675959, "label": "юг∩Варварина протока"}, "geometry": {"type": "Point", "coordinates": [32.9294805, 57.2999152]}}, {"type": "Feature", "id": "knyazha-area", "properties": {"name": "Княжа", "osm": "way/81753515", "kind": "connected", "physical": "ДА", "shared_nodes": 3, "shared_edges": 2}, "geometry": {"type": "Polygon", "coordinates": [[[33.1773347, 57.2982987], [33.1779726, 57.29873], [33.1788386, 57.299277], [33.1798484, 57.2994644], [33.1815926, 57.2995911], [33.1826432, 57.2997509], [33.1832246, 57.3004508], [33.1835408, 57.300853], [33.1844384, 57.3009577], [33.1855502, 57.3006987], [33.186101, 57.3001752], [33.1864478, 57.2996848], [33.1865396, 57.2987425], [33.1864274, 57.2983457], [33.1868354, 57.2982906], [33.1873046, 57.2984725], [33.187478, 57.2990401], [33.1876106, 57.2996738], [33.1881206, 57.3000485], [33.1889978, 57.3002579], [33.189773, 57.3002689], [33.1907828, 57.2999769], [33.1917008, 57.2998501], [33.192833, 57.3001477], [33.1935164, 57.3003957], [33.1941284, 57.3006326], [33.194873, 57.3007373], [33.1963284, 57.3006072], [33.1963299, 57.3003393], [33.1963727, 57.3000374], [33.1958524, 57.3001884], [33.1951578, 57.3002477], [33.1943483, 57.3002448], [33.1938, 57.300005], [33.1930218, 57.2997172], [33.1922698, 57.2995254], [33.1913716, 57.2994661], [33.1909224, 57.2994718], [33.1903584, 57.2996411], [33.1898414, 57.299847], [33.1892721, 57.3000135], [33.1885514, 57.299895], [33.1883739, 57.2993646], [33.188353, 57.2990034], [33.1881232, 57.2986254], [33.1876532, 57.2981457], [33.1868385, 57.2979087], [33.1861805, 57.2978748], [33.1857627, 57.2982416], [33.1857522, 57.2987072], [33.1857052, 57.299421], [33.1854911, 57.2999853], [33.1850368, 57.3003774], [33.1845929, 57.300558], [33.1841019, 57.300527], [33.1837886, 57.3004734], [33.1837259, 57.299895], [33.1829635, 57.2994436], [33.1823263, 57.2992461], [33.181496, 57.2991586], [33.180488, 57.2991304], [33.1797517, 57.2991022], [33.1793704, 57.2989893], [33.1787751, 57.2986874], [33.1782946, 57.2982614], [33.1780277, 57.2979706], [33.1775764, 57.2982325], [33.1773347, 57.2982987]]]}}, {"type": "Feature", "id": "varvarina", "properties": {"name": "Варварина протока", "osm": "way/1316976066", "kind": "connected", "physical": "ДА", "shared_nodes": 2, "shared_edges": 1}, "geometry": {"type": "Polygon", "coordinates": [[[32.9288677, 57.3024878], [32.9287918, 57.3023919], [32.9287811, 57.3022851], [32.9288756, 57.3021066], [32.9289228, 57.3019443], [32.9290301, 57.3017473], [32.9291888, 57.3016383], [32.9290901, 57.3015432], [32.9289399, 57.301425], [32.9288198, 57.3012859], [32.9287082, 57.3011167], [32.9286266, 57.3009497], [32.9286068, 57.3008009], [32.9287726, 57.3006715], [32.9290086, 57.3004814], [32.929176, 57.3003446], [32.9293348, 57.3001777], [32.9294805, 57.2999152], [32.9295327, 57.2999165], [32.9294335, 57.3001244], [32.9292747, 57.3003006], [32.9291845, 57.3004072], [32.9289743, 57.3005742], [32.9288069, 57.3007133], [32.9287125, 57.300813], [32.9286653, 57.3009126], [32.9287425, 57.3010494], [32.9288927, 57.3012001], [32.9290386, 57.3013531], [32.9291717, 57.3014992], [32.9292833, 57.3016383], [32.9291073, 57.3017473], [32.9290258, 57.301884], [32.9289871, 57.3019861], [32.9289099, 57.3022411], [32.9289925, 57.3024594], [32.9288677, 57.3024878]]]}}, {"type": "Feature", "id": "svyatoe", "properties": {"name": "Святое", "osm": "relation/18358803", "kind": "connected-via-varvarina", "physical": "ДА (через Варварину протоку)", "shared_nodes_with_seliger": 0, "bridge": "way/1316976066"}, "geometry": {"type": "Polygon", "coordinates": [[[32.9337737, 57.3108641], [32.93425, 57.31], [32.9334088, 57.309593], [32.933, 57.309], [32.9315794, 57.3098786], [32.9303531, 57.3099287], [32.93, 57.30925], [32.93275, 57.30775], [32.93275, 57.30725], [32.93175, 57.30675], [32.9315, 57.30625], [32.9314459, 57.3053431], [32.9311913, 57.3051335], [32.9315, 57.30425], [32.9317006, 57.3033698], [32.9307949, 57.3026692], [32.9291933, 57.3024138], [32.9289925, 57.3024594], [32.9288677, 57.3024878], [32.9288083, 57.3025013], [32.9287628, 57.3025709], [32.9285265, 57.3029328], [32.9286243, 57.303524], [32.92925, 57.30425], [32.92925, 57.30675], [32.9295, 57.307], [32.9285, 57.30875], [32.9285, 57.31025], [32.9285, 57.31125], [32.929, 57.31275], [32.93, 57.314], [32.93025, 57.31425], [32.93, 57.3145], [32.92975, 57.315], [32.931, 57.3165], [32.93125, 57.31675], [32.931, 57.31875], [32.9315, 57.31975], [32.93175, 57.32], [32.93125, 57.32125], [32.93125, 57.32175], [32.932, 57.32225], [32.93225, 57.323], [32.93225, 57.324], [32.93175, 57.3245], [32.9315, 57.32475], [32.93175, 57.32575], [32.93125, 57.3265], [32.9335, 57.3285], [32.934, 57.329], [32.93625, 57.33], [32.9373995, 57.3307076], [32.9376012, 57.3308317], [32.9377212, 57.3309056], [32.9389407, 57.3309427], [32.9388691, 57.3301773], [32.938, 57.32975], [32.936, 57.32775], [32.934, 57.32775], [32.93325, 57.32675], [32.9325, 57.32625], [32.933681, 57.3257365], [32.9361031, 57.3256357], [32.9365675, 57.3248429], [32.93575, 57.32425], [32.9344325, 57.3240929], [32.9358992, 57.3235055], [32.93625, 57.32275], [32.93775, 57.3235], [32.93825, 57.3235], [32.939, 57.323], [32.9395, 57.32175], [32.93975, 57.3215], [32.943, 57.321], [32.94425, 57.32025], [32.94375, 57.3195], [32.94325, 57.3195], [32.941, 57.3205], [32.939, 57.3205], [32.9385, 57.3205], [32.937, 57.3215], [32.93625, 57.32175], [32.9355, 57.32025], [32.936, 57.32], [32.936, 57.3185], [32.93675, 57.318], [32.93925, 57.31875], [32.941, 57.3185], [32.94225, 57.31875], [32.9435, 57.31875], [32.943, 57.318], [32.93775, 57.31675], [32.93725, 57.317], [32.93675, 57.317], [32.93575, 57.31625], [32.93425, 57.31575], [32.93275, 57.3155], [32.932, 57.3145], [32.9335, 57.31375], [32.9346185, 57.3116149], [32.9337737, 57.3108641]]]}}, {"type": "Feature", "id": "sereymo", "properties": {"name": "Серемо", "osm": "relation/9617478", "kind": "connected-via-knyazha", "physical": "ДА (через Княжу)", "shared_nodes_with_seliger": 0, "bridge": "way/81753515"}, "geometry": {"type": "Polygon", "coordinates": [[[33.222055, 57.2928949], [33.2227149, 57.2925598], [33.2232325, 57.292297], [33.2241248, 57.2925404], [33.2239626, 57.2932299], [33.2203902, 57.2934118], [33.2203934, 57.2939194], [33.2227354, 57.2950015], [33.2237587, 57.2947749], [33.2244235, 57.2949072], [33.2241786, 57.2952664], [33.2231814, 57.2955689], [33.2229015, 57.2959659], [33.2231114, 57.2963345], [33.2242485, 57.2964479], [33.2248467, 57.2968127], [33.2251582, 57.2971757], [33.2252282, 57.2978184], [33.2246859, 57.2988486], [33.2252119, 57.2992028], [33.2274358, 57.2992743], [33.2295636, 57.3005655], [33.2306338, 57.300701], [33.2327331, 57.3002663], [33.2331893, 57.3003535], [33.233153, 57.3007104], [33.2331063, 57.3009621], [33.231561, 57.3011357], [33.2309373, 57.3015447], [33.2309137, 57.302043], [33.2330748, 57.3036418], [33.2267568, 57.3044886], [33.2251298, 57.3055839], [33.2233236, 57.3053232], [33.2208962, 57.3060423], [33.2179397, 57.3064484], [33.2222936, 57.3074558], [33.2239163, 57.3068782], [33.2261682, 57.3082378], [33.2257367, 57.3098528], [33.2229889, 57.310491], [33.2215455, 57.3115186], [33.2221219, 57.3132039], [33.2215216, 57.3143982], [33.2198904, 57.315058], [33.2162855, 57.3170046], [33.2147339, 57.318834], [33.2125932, 57.3193708], [33.2095907, 57.3187658], [33.205448, 57.3170091], [33.1998608, 57.3160954], [33.19867, 57.3150834], [33.1973144, 57.3137043], [33.1980894, 57.3115352], [33.2028959, 57.309032], [33.2058141, 57.3081975], [33.2042692, 57.307363], [33.2052991, 57.3059722], [33.2021272, 57.3032464], [33.2008563, 57.3027867], [33.1980629, 57.3017724], [33.1963284, 57.3006072], [33.1963299, 57.3003393], [33.1963727, 57.3000374], [33.1974057, 57.2988925], [33.197881, 57.2980271], [33.1986555, 57.2973947], [33.2007677, 57.2971617], [33.2059858, 57.2967915], [33.2085127, 57.2962915], [33.2101057, 57.2955857], [33.2108801, 57.2948982], [33.2118514, 57.2946403], [33.2155988, 57.2941017], [33.2194436, 57.2926964], [33.221327, 57.2929294], [33.222055, 57.2928949]]]}}]}